<?xml version="1.0" encoding="UTF-8"?>
<kml xmlns="http://www.opengis.net/kml/2.2"><Document>
<Placemark><name>100.0</name><LineString><coordinates>72.877700,19.130000,0 72.887546,19.129180,0 72.897093,19.126743,0 72.906050,19.122765,0 72.914146,19.117366,0 72.921135,19.110711,0 72.926804,19.103000,0 72.930981,19.094469,0 72.933539,19.085377,0 72.934400,19.076000,0 72.933539,19.066623,0 72.930981,19.057531,0 72.926804,19.049000,0 72.921135,19.041289,0 72.914146,19.034634,0 72.906050,19.029235,0 72.897093,19.025257,0 72.887546,19.022820,0 72.877700,19.022000,0 72.867854,19.022820,0 72.858307,19.025257,0 72.849350,19.029235,0 72.841254,19.034634,0 72.834265,19.041289,0 72.828596,19.049000,0 72.824419,19.057531,0 72.821861,19.066623,0 72.821000,19.076000,0 72.821861,19.085377,0 72.824419,19.094469,0 72.828596,19.103000,0 72.834265,19.110711,0 72.841254,19.117366,0 72.849350,19.122765,0 72.858307,19.126743,0 72.867854,19.129180,0 72.877700,19.130000,0</coordinates></LineString></Placemark><Placemark><name>105.0</name><LineString><coordinates>72.877700,19.125500,0 72.886725,19.124748,0 72.895476,19.122515,0 72.903688,19.118868,0 72.911109,19.113919,0 72.917515,19.107818,0 72.922712,19.100750,0 72.926541,19.092930,0 72.928885,19.084596,0 72.929675,19.076000,0 72.928885,19.067404,0 72.926541,19.059070,0 72.922712,19.051250,0 72.917515,19.044182,0 72.911109,19.038081,0 72.903688,19.033132,0 72.895476,19.029485,0 72.886725,19.027252,0 72.877700,19.026500,0 72.868675,19.027252,0 72.859924,19.029485,0 72.851713,19.033132,0 72.844291,19.038081,0 72.837885,19.044182,0 72.832688,19.051250,0 72.828859,19.059070,0 72.826515,19.067404,0 72.825725,19.076000,0 72.826515,19.084596,0 72.828859,19.092930,0 72.832688,19.100750,0 72.837885,19.107818,0 72.844291,19.113919,0 72.851713,19.118868,0 72.859924,19.122515,0 72.868675,19.124748,0 72.877700,19.125500,0</coordinates></LineString></Placemark><Placemark><name>110.0</name><LineString><coordinates>72.877700,19.121000,0 72.885905,19.120316,0 72.893860,19.118286,0 72.901325,19.114971,0 72.908072,19.110472,0 72.913896,19.104925,0 72.918620,19.098500,0 72.922100,19.091391,0 72.924232,19.083814,0 72.924950,19.076000,0 72.924232,19.068186,0 72.922100,19.060609,0 72.918620,19.053500,0 72.913896,19.047075,0 72.908072,19.041528,0 72.901325,19.037029,0 72.893860,19.033714,0 72.885905,19.031684,0 72.877700,19.031000,0 72.869495,19.031684,0 72.861540,19.033714,0 72.854075,19.037029,0 72.847328,19.041528,0 72.841504,19.047075,0 72.836780,19.053500,0 72.833300,19.060609,0 72.831168,19.068186,0 72.830450,19.076000,0 72.831168,19.083814,0 72.833300,19.091391,0 72.836780,19.098500,0 72.841504,19.104925,0 72.847328,19.110472,0 72.854075,19.114971,0 72.861540,19.118286,0 72.869495,19.120316,0 72.877700,19.121000,0</coordinates></LineString></Placemark><Placemark><name>115.0</name><LineString><coordinates>72.877700,19.116500,0 72.885084,19.115885,0 72.892244,19.114058,0 72.898963,19.111074,0 72.905035,19.107025,0 72.910276,19.102033,0 72.914528,19.096250,0 72.917660,19.089852,0 72.919579,19.083033,0 72.920225,19.076000,0 72.919579,19.068967,0 72.917660,19.062148,0 72.914528,19.055750,0 72.910276,19.049967,0 72.905035,19.044975,0 72.898963,19.040926,0 72.892244,19.037942,0 72.885084,19.036115,0 72.877700,19.035500,0 72.870316,19.036115,0 72.863156,19.037942,0 72.856437,19.040926,0 72.850365,19.044975,0 72.845124,19.049967,0 72.840872,19.055750,0 72.837740,19.062148,0 72.835821,19.068967,0 72.835175,19.076000,0 72.835821,19.083033,0 72.837740,19.089852,0 72.840872,19.096250,0 72.845124,19.102033,0 72.850365,19.107025,0 72.856437,19.111074,0 72.863156,19.114058,0 72.870316,19.115885,0 72.877700,19.116500,0</coordinates></LineString></Placemark><Placemark><name>120.0</name><LineString><coordinates>72.877700,19.112000,0 72.884264,19.111453,0 72.890628,19.109829,0 72.896600,19.107177,0 72.901997,19.103578,0 72.906656,19.099140,0 72.910436,19.094000,0 72.913220,19.088313,0 72.914926,19.082251,0 72.915500,19.076000,0 72.914926,19.069749,0 72.913220,19.063687,0 72.910436,19.058000,0 72.906656,19.052860,0 72.901997,19.048422,0 72.896600,19.044823,0 72.890628,19.042171,0 72.884264,19.040547,0 72.877700,19.040000,0 72.871136,19.040547,0 72.864772,19.042171,0 72.858800,19.044823,0 72.853403,19.048422,0 72.848744,19.052860,0 72.844964,19.058000,0 72.842180,19.063687,0 72.840474,19.069749,0 72.839900,19.076000,0 72.840474,19.082251,0 72.842180,19.088313,0 72.844964,19.094000,0 72.848744,19.099140,0 72.853403,19.103578,0 72.858800,19.107177,0 72.864772,19.109829,0 72.871136,19.111453,0 72.877700,19.112000,0</coordinates></LineString></Placemark><Placemark><name>125.0</name><LineString><coordinates>72.877700,19.107500,0 72.883443,19.107021,0 72.889012,19.105600,0 72.894238,19.103280,0 72.898960,19.100130,0 72.903037,19.096248,0 72.906344,19.091750,0 72.908780,19.086774,0 72.910273,19.081470,0 72.910775,19.076000,0 72.910273,19.070530,0 72.908780,19.065226,0 72.906344,19.060250,0 72.903037,19.055752,0 72.898960,19.051870,0 72.894238,19.048720,0 72.889012,19.046400,0 72.883443,19.044979,0 72.877700,19.044500,0 72.871957,19.044979,0 72.866388,19.046400,0 72.861163,19.048720,0 72.856440,19.051870,0 72.852363,19.055752,0 72.849056,19.060250,0 72.846620,19.065226,0 72.845127,19.070530,0 72.844625,19.076000,0 72.845127,19.081470,0 72.846620,19.086774,0 72.849056,19.091750,0 72.852363,19.096248,0 72.856440,19.100130,0 72.861163,19.103280,0 72.866388,19.105600,0 72.871957,19.107021,0 72.877700,19.107500,0</coordinates></LineString></Placemark><Placemark><name>130.0</name><LineString><coordinates>72.877700,19.103000,0 72.882623,19.102590,0 72.887396,19.101372,0 72.891875,19.099383,0 72.895923,19.096683,0 72.899417,19.093355,0 72.902252,19.089500,0 72.904340,19.085235,0 72.905619,19.080689,0 72.906050,19.076000,0 72.905619,19.071311,0 72.904340,19.066765,0 72.902252,19.062500,0 72.899417,19.058645,0 72.895923,19.055317,0 72.891875,19.052617,0 72.887396,19.050628,0 72.882623,19.049410,0 72.877700,19.049000,0 72.872777,19.049410,0 72.868004,19.050628,0 72.863525,19.052617,0 72.859477,19.055317,0 72.855983,19.058645,0 72.853148,19.062500,0 72.851060,19.066765,0 72.849781,19.071311,0 72.849350,19.076000,0 72.849781,19.080689,0 72.851060,19.085235,0 72.853148,19.089500,0 72.855983,19.093355,0 72.859477,19.096683,0 72.863525,19.099383,0 72.868004,19.101372,0 72.872777,19.102590,0 72.877700,19.103000,0</coordinates></LineString></Placemark><Placemark><name>135.0</name><LineString><coordinates>72.877700,19.098500,0 72.881802,19.098158,0 72.885780,19.097143,0 72.889513,19.095486,0 72.892886,19.093236,0 72.895798,19.090463,0 72.898160,19.087250,0 72.899900,19.083695,0 72.900966,19.079907,0 72.901325,19.076000,0 72.900966,19.072093,0 72.899900,19.068305,0 72.898160,19.064750,0 72.895798,19.061537,0 72.892886,19.058764,0 72.889513,19.056514,0 72.885780,19.054857,0 72.881802,19.053842,0 72.877700,19.053500,0 72.873598,19.053842,0 72.869620,19.054857,0 72.865887,19.056514,0 72.862514,19.058764,0 72.859602,19.061537,0 72.857240,19.064750,0 72.855500,19.068305,0 72.854434,19.072093,0 72.854075,19.076000,0 72.854434,19.079907,0 72.855500,19.083695,0 72.857240,19.087250,0 72.859602,19.090463,0 72.862514,19.093236,0 72.865887,19.095486,0 72.869620,19.097143,0 72.873598,19.098158,0 72.877700,19.098500,0</coordinates></LineString></Placemark><Placemark><name>140.0</name><LineString><coordinates>72.877700,19.094000,0 72.880982,19.093727,0 72.884164,19.092914,0 72.887150,19.091588,0 72.889849,19.089789,0 72.892178,19.087570,0 72.894068,19.085000,0 72.895460,19.082156,0 72.896313,19.079126,0 72.896600,19.076000,0 72.896313,19.072874,0 72.895460,19.069844,0 72.894068,19.067000,0 72.892178,19.064430,0 72.889849,19.062211,0 72.887150,19.060412,0 72.884164,19.059086,0 72.880982,19.058273,0 72.877700,19.058000,0 72.874418,19.058273,0 72.871236,19.059086,0 72.868250,19.060412,0 72.865551,19.062211,0 72.863222,19.064430,0 72.861332,19.067000,0 72.859940,19.069844,0 72.859087,19.072874,0 72.858800,19.076000,0 72.859087,19.079126,0 72.859940,19.082156,0 72.861332,19.085000,0 72.863222,19.087570,0 72.865551,19.089789,0 72.868250,19.091588,0 72.871236,19.092914,0 72.874418,19.093727,0 72.877700,19.094000,0</coordinates></LineString></Placemark><Placemark><name>145.0</name><LineString><coordinates>72.877700,19.089500,0 72.880161,19.089295,0 72.882548,19.088686,0 72.884788,19.087691,0 72.886812,19.086342,0 72.888559,19.084678,0 72.889976,19.082750,0 72.891020,19.080617,0 72.891660,19.078344,0 72.891875,19.076000,0 72.891660,19.073656,0 72.891020,19.071383,0 72.889976,19.069250,0 72.888559,19.067322,0 72.886812,19.065658,0 72.884788,19.064309,0 72.882548,19.063314,0 72.880161,19.062705,0 72.877700,19.062500,0 72.875239,19.062705,0 72.872852,19.063314,0 72.870613,19.064309,0 72.868588,19.065658,0 72.866841,19.067322,0 72.865424,19.069250,0 72.864380,19.071383,0 72.863740,19.073656,0 72.863525,19.076000,0 72.863740,19.078344,0 72.864380,19.080617,0 72.865424,19.082750,0 72.866841,19.084678,0 72.868588,19.086342,0 72.870613,19.087691,0 72.872852,19.088686,0 72.875239,19.089295,0 72.877700,19.089500,0</coordinates></LineString></Placemark><Placemark><name>150.0</name><LineString><coordinates>72.877700,19.085000,0 72.879341,19.084863,0 72.880932,19.084457,0 72.882425,19.083794,0 72.883774,19.082894,0 72.884939,19.081785,0 72.885884,19.080500,0 72.886580,19.079078,0 72.887006,19.077563,0 72.887150,19.076000,0 72.887006,19.074437,0 72.886580,19.072922,0 72.885884,19.071500,0 72.884939,19.070215,0 72.883774,19.069106,0 72.882425,19.068206,0 72.880932,19.067543,0 72.879341,19.067137,0 72.877700,19.067000,0 72.876059,19.067137,0 72.874468,19.067543,0 72.872975,19.068206,0 72.871626,19.069106,0 72.870461,19.070215,0 72.869516,19.071500,0 72.868820,19.072922,0 72.868394,19.074437,0 72.868250,19.076000,0 72.868394,19.077563,0 72.868820,19.079078,0 72.869516,19.080500,0 72.870461,19.081785,0 72.871626,19.082894,0 72.872975,19.083794,0 72.874468,19.084457,0 72.876059,19.084863,0 72.877700,19.085000,0</coordinates></LineString></Placemark><Placemark><name>155.0</name><LineString><coordinates>72.877700,19.080500,0 72.878520,19.080432,0 72.879316,19.080229,0 72.880063,19.079897,0 72.880737,19.079447,0 72.881320,19.078893,0 72.881792,19.078250,0 72.882140,19.077539,0 72.882353,19.076781,0 72.882425,19.076000,0 72.882353,19.075219,0 72.882140,19.074461,0 72.881792,19.073750,0 72.881320,19.073107,0 72.880737,19.072553,0 72.880063,19.072103,0 72.879316,19.071771,0 72.878520,19.071568,0 72.877700,19.071500,0 72.876880,19.071568,0 72.876084,19.071771,0 72.875338,19.072103,0 72.874663,19.072553,0 72.874080,19.073107,0 72.873608,19.073750,0 72.873260,19.074461,0 72.873047,19.075219,0 72.872975,19.076000,0 72.873047,19.076781,0 72.873260,19.077539,0 72.873608,19.078250,0 72.874080,19.078893,0 72.874663,19.079447,0 72.875338,19.079897,0 72.876084,19.080229,0 72.876880,19.080432,0 72.877700,19.080500,0</coordinates></LineString></Placemark>
</Document></kml>